{"type": "FeatureCollection", "features": [ {"type": "Feature", "properties": {"norad_id": 67123, "name": "STARLINK-36151", "group": "last-30-days", "lat": 40.432548084019565, "lon": -20.338520648724252, "alt_km": 339.61205659828556, "timestamp": "2025-12-27T13:34:48.010700+00:00", "meta": {"OBJECT_NAME": "STARLINK-36151", "OBJECT_ID": "2025-299X", "EPOCH": "2025-12-27T06:00:02.000160", "MEAN_MOTION": 15.76209638, "ECCENTRICITY": 0.00014281, "INCLINATION": 42.9989, "RA_OF_ASC_NODE": 227.7016, "ARG_OF_PERICENTER": 270.7586, "MEAN_ANOMALY": 203.7067, "EPHEMERIS_TYPE": 0, "CLASSIFICATION_TYPE": "U", "NORAD_CAT_ID": 67123, "ELEMENT_SET_NO": 999, "REV_AT_EPOCH": 314, "BSTAR": -0.013220351, "MEAN_MOTION_DOT": -0.01865735, "MEAN_MOTION_DDOT": 0}, "tle": {"line1": "1 67123U 25299X   25361.25002315 -.01865735  00000+0 -13220-1 0  9996", "line2": "2 67123  42.9989 227.7016 0001428 270.7586 203.7067 15.76209638  3147"}}, "geometry": {"type": "Point", "coordinates": [-20.338520648724252, 40.432548084019565]}}, {"type": "Feature", "properties": {"norad_id": 67124, "name": "STARLINK-36195", "group": "last-30-days", "lat": 38.83337443905733, "lon": -13.986750564909592, "alt_km": 339.8583237233188, "timestamp": "2025-12-27T13:34:48.010710+00:00", "meta": {"OBJECT_NAME": "STARLINK-36195", "OBJECT_ID": "2025-299Y", "EPOCH": "2025-12-27T06:00:02.000160", "MEAN_MOTION": 15.76233933, "ECCENTRICITY": 0.00015956, "INCLINATION": 42.9989, "RA_OF_ASC_NODE": 227.6885, "ARG_OF_PERICENTER": 270.4974, "MEAN_ANOMALY": 209.0886, "EPHEMERIS_TYPE": 0, "CLASSIFICATION_TYPE": "U", "NORAD_CAT_ID": 67124, "ELEMENT_SET_NO": 999, "REV_AT_EPOCH": 314, "BSTAR": -0.013171402, "MEAN_MOTION_DOT": -0.01861636, "MEAN_MOTION_DDOT": 0}, "tle": {"line1": "1 67124U 25299Y   25361.25002315 -.01861636  00000+0 -13171-1 0  9998", "line2": "2 67124  42.9989 227.6885 0001595 270.4974 209.0886 15.76233933  3147"}}, "geometry": {"type": "Point", "coordinates": [-13.986750564909592, 38.83337443905733]}}, {"type": "Feature", "properties": {"norad_id": 67125, "name": "STARLINK-36219", "group": "last-30-days", "lat": 38.2429877303032, "lon": -11.994106608935478, "alt_km": 339.8914886221919, "timestamp": "2025-12-27T13:34:48.010720+00:00", "meta": {"OBJECT_NAME": "STARLINK-36219", "OBJECT_ID": "2025-299Z", "EPOCH": "2025-12-27T06:00:02.000160", "MEAN_MOTION": 15.76247365, "ECCENTRICITY": 0.00015145, "INCLINATION": 42.9989, "RA_OF_ASC_NODE": 227.6843, "ARG_OF_PERICENTER": 275.881, "MEAN_ANOMALY": 205.3555, "EPHEMERIS_TYPE": 0, "CLASSIFICATION_TYPE": "U", "NORAD_CAT_ID": 67125, "ELEMENT_SET_NO": 999, "REV_AT_EPOCH": 314, "BSTAR": -0.013165153, "MEAN_MOTION_DOT": -0.01861768, "MEAN_MOTION_DDOT": 0}, "tle": {"line1": "1 67125U 25299Z   25361.25002315 -.01861768  00000+0 -13165-1 0  9998", "line2": "2 67125  42.9989 227.6843 0001514 275.8810 205.3555 15.76247365  3147"}}, "geometry": {"type": "Point", "coordinates": [-11.994106608935478, 38.2429877303032]}}, {"type": "Feature", "properties": {"norad_id": 67126, "name": "STARLINK-36223", "group": "last-30-days", "lat": 37.5423549146158, "lon": -9.802413178249308, "alt_km": 340.00052805139785, "timestamp": "2025-12-27T13:34:48.010739+00:00", "meta": {"OBJECT_NAME": "STARLINK-36223", "OBJECT_ID": "2025-299AA", "EPOCH": "2025-12-27T06:00:02.000160", "MEAN_MOTION": 15.76243273, "ECCENTRICITY": 0.00016083, "INCLINATION": 42.9988, "RA_OF_ASC_NODE": 227.6792, "ARG_OF_PERICENTER": 270.7213, "MEAN_ANOMALY": 212.387, "EPHEMERIS_TYPE": 0, "CLASSIFICATION_TYPE": "U", "NORAD_CAT_ID": 67126, "ELEMENT_SET_NO": 999, "REV_AT_EPOCH": 314, "BSTAR": -0.013108944, "MEAN_MOTION_DOT": -0.0185464, "MEAN_MOTION_DDOT": 0}, "tle": {"line1": "1 67126U 25299AA  25361.25002315 -.01854640  00000+0 -13109-1 0  9998", "line2": "2 67126  42.9988 227.6792 0001608 270.7213 212.3870 15.76243273  3147"}}, "geometry": {"type": "Point", "coordinates": [-9.802413178249308, 37.5423549146158]}}, {"type": "Feature", "properties": {"norad_id": 67127, "name": "STARLINK-36164", "group": "last-30-days", "lat": 36.847338161543995, "lon": -7.7799583586680985, "alt_km": 340.06081232996894, "timestamp": "2025-12-27T13:34:48.010750+00:00", "meta": {"OBJECT_NAME": "STARLINK-36164", "OBJECT_ID": "2025-299AB", "EPOCH": "2025-12-27T06:00:02.000160", "MEAN_MOTION": 15.76253171, "ECCENTRICITY": 0.00015784, "INCLINATION": 42.9988, "RA_OF_ASC_NODE": 227.6748, "ARG_OF_PERICENTER": 271.2809, "MEAN_ANOMALY": 213.5732, "EPHEMERIS_TYPE": 0, "CLASSIFICATION_TYPE": "U", "NORAD_CAT_ID": 67127, "ELEMENT_SET_NO": 999, "REV_AT_EPOCH": 314, "BSTAR": -0.013127395, "MEAN_MOTION_DOT": -0.018576, "MEAN_MOTION_DDOT": 0}, "tle": {"line1": "1 67127U 25299AB  25361.25002315 -.01857600  00000+0 -13127-1 0  9998", "line2": "2 67127  42.9988 227.6748 0001578 271.2809 213.5732 15.76253171  3140"}}, "geometry": {"type": "Point", "coordinates": [-7.7799583586680985, 36.847338161543995]}}, {"type": "Feature", "properties": {"norad_id": 67128, "name": "STARLINK-35685", "group": "last-30-days", "lat": 34.93469324760388, "lon": -2.8138938417909145, "alt_km": 340.4235271925254, "timestamp": "2025-12-27T13:34:48.010760+00:00", "meta": {"OBJECT_NAME": "STARLINK-35685", "OBJECT_ID": "2025-299AC", "EPOCH": "2025-12-27T06:00:02.000160", "MEAN_MOTION": 15.76222016, "ECCENTRICITY": 0.00015171, "INCLINATION": 42.9988, "RA_OF_ASC_NODE": 227.6632, "ARG_OF_PERICENTER": 276.5609, "MEAN_ANOMALY": 212.7831, "EPHEMERIS_TYPE": 0, "CLASSIFICATION_TYPE": "U", "NORAD_CAT_ID": 67128, "ELEMENT_SET_NO": 999, "REV_AT_EPOCH": 314, "BSTAR": -0.013117962, "MEAN_MOTION_DOT": -0.01854134, "MEAN_MOTION_DDOT": 0}, "tle": {"line1": "1 67128U 25299AC  25361.25002315 -.01854134  00000+0 -13118-1 0  9998", "line2": "2 67128  42.9988 227.6632 0001517 276.5609 212.7831 15.76222016  3147"}}, "geometry": {"type": "Point", "coordinates": [-2.8138938417909145, 34.93469324760388]}}, {"type": "Feature", "properties": {"norad_id": 67129, "name": "STARLINK-36214", "group": "last-30-days", "lat": 36.03734109183733, "lon": -5.580683340002914, "alt_km": 340.1838256956589, "timestamp": "2025-12-27T13:34:48.010770+00:00", "meta": {"OBJECT_NAME": "STARLINK-36214", "OBJECT_ID": "2025-299AD", "EPOCH": "2025-12-27T06:00:02.000160", "MEAN_MOTION": 15.76252378, "ECCENTRICITY": 0.00015744, "INCLINATION": 42.9989, "RA_OF_ASC_NODE": 227.6703, "ARG_OF_PERICENTER": 272.0463, "MEAN_ANOMALY": 214.7564, "EPHEMERIS_TYPE": 0, "CLASSIFICATION_TYPE": "U", "NORAD_CAT_ID": 67129, "ELEMENT_SET_NO": 999, "REV_AT_EPOCH": 314, "BSTAR": -0.013141108, "MEAN_MOTION_DOT": -0.01859226, "MEAN_MOTION_DDOT": 0}, "tle": {"line1": "1 67129U 25299AD  25361.25002315 -.01859226  00000+0 -13141-1 0  9992", "line2": "2 67129  42.9989 227.6703 0001574 272.0463 214.7564 15.76252378  3149"}}, "geometry": {"type": "Point", "coordinates": [-5.580683340002914, 36.03734109183733]}}, {"type": "Feature", "properties": {"norad_id": 67130, "name": "STARLINK-36194", "group": "last-30-days", "lat": 33.06477650268093, "lon": 1.4173144165203568, "alt_km": 340.87994927735053, "timestamp": "2025-12-27T13:34:48.010780+00:00", "meta": {"OBJECT_NAME": "STARLINK-36194", "OBJECT_ID": "2025-299AE", "EPOCH": "2025-12-27T06:00:02.000160", "MEAN_MOTION": 15.76139028, "ECCENTRICITY": 0.00014095, "INCLINATION": 42.9988, "RA_OF_ASC_NODE": 227.6553, "ARG_OF_PERICENTER": 274.2338, "MEAN_ANOMALY": 219.1905, "EPHEMERIS_TYPE": 0, "CLASSIFICATION_TYPE": "U", "NORAD_CAT_ID": 67130, "ELEMENT_SET_NO": 999, "REV_AT_EPOCH": 314, "BSTAR": -0.01332388, "MEAN_MOTION_DOT": -0.01873259, "MEAN_MOTION_DDOT": 0}, "tle": {"line1": "1 67130U 25299AE  25361.25002315 -.01873259  00000+0 -13324-1 0  9999", "line2": "2 67130  42.9988 227.6553 0001409 274.2338 219.1905 15.76139028  3149"}}, "geometry": {"type": "Point", "coordinates": [1.4173144165203568, 33.06477650268093]}}, {"type": "Feature", "properties": {"norad_id": 67131, "name": "ZIYUAN 3-04 (ZY 3-04)", "group": "last-30-days", "lat": 62.75779774131293, "lon": 60.79128727437177, "alt_km": 495.857369470853, "timestamp": "2025-12-27T13:34:48.010793+00:00", "meta": {"OBJECT_NAME": "ZIYUAN 3-04 (ZY 3-04)", "OBJECT_ID": "2025-300A", "EPOCH": "2025-12-27T02:15:00.635904", "MEAN_MOTION": 15.21251311, "ECCENTRICITY": 0.00031253, "INCLINATION": 97.4921, "RA_OF_ASC_NODE": 75.1314, "ARG_OF_PERICENTER": 152.4137, "MEAN_ANOMALY": 207.7265, "EPHEMERIS_TYPE": 0, "CLASSIFICATION_TYPE": "U", "NORAD_CAT_ID": 67131, "ELEMENT_SET_NO": 999, "REV_AT_EPOCH": 167, "BSTAR": 9.4249032e-05, "MEAN_MOTION_DOT": 2.035e-05, "MEAN_MOTION_DDOT": 0}, "tle": {"line1": "1 67131U 25300A   25361.09375736  .00002035  00000+0  94249-4 0  9996", "line2": "2 67131  97.4921  75.1314 0003125 152.4137 207.7265 15.21251311  1672"}}, "geometry": {"type": "Point", "coordinates": [60.79128727437177, 62.75779774131293]}}, {"type": "Feature", "properties": {"norad_id": 67132, "name": "CZ-4B R/B", "group": "last-30-days", "lat": -11.066285278549577, "lon": 77.9773949191282, "alt_km": 265.387444075388, "timestamp": "2025-12-27T13:34:48.010809+00:00", "meta": {"OBJECT_NAME": "CZ-4B R/B", "OBJECT_ID": "2025-300B", "EPOCH": "2025-12-18T16:13:04.609056", "MEAN_MOTION": 15.63831828, "ECCENTRICITY": 0.01741973, "INCLINATION": 97.5563, "RA_OF_ASC_NODE": 66.966, "ARG_OF_PERICENTER": 9.3582, "MEAN_ANOMALY": 351.0851, "EPHEMERIS_TYPE": 0, "CLASSIFICATION_TYPE": "U", "NORAD_CAT_ID": 67132, "ELEMENT_SET_NO": 999, "REV_AT_EPOCH": 40, "BSTAR": 0.00019566238, "MEAN_MOTION_DOT": 0.00040543, "MEAN_MOTION_DDOT": 2.652968e-06}, "tle": {"line1": "1 67132U 25300B   25352.67574779  .00040543  26530-5  19566-3 0  9995", "line2": "2 67132  97.5563  66.9660 0174197   9.3582 351.0851 15.63831828   407"}}, "geometry": {"type": "Point", "coordinates": [77.9773949191282, -11.066285278549577]}}]}